[OverheadWindow(satellite=Satellite(name='0 COSMOS 1932 DEB', tle_information=TleInformation(argument_of_perigee=5.153187590939126, drag_coefficient=0.00015211, eccentricity=0.0057116, epoch_days=26633.28893622, inclination=1.1352005427406557, international_designator=InternationalDesignator(year=88, launch_number=19, launch_piece='F'), mean_anomaly=4.188343400497881, mean_motion=MeanMotion(first_derivative=2.363466695408988e-12, second_derivative=0.0, value=0.060298700041442894), revolution_number=95238, right_ascension_of_ascending_node=2.907844197528697, satellite_number=28275, classification='U'), frequency=None), overhead_time=TimeWindow(begin=datetime.datetime(2023, 2, 22, 1, 20, 47, 182648, tzinfo=datetime.timezone.utc), end=datetime.datetime(2023, 2, 22, 1, 21, 19, 182648, tzinfo=datetime.timezone.utc))), OverheadWindow(satellite=Satellite(name='0 COSMOS 1932 DEB', tle_information=TleInformation(argument_of_perigee=5.153187590939126, drag_coefficient=0.00015211, eccentricity=0.0057116, epoch_days=26633.28893622, inclination=1.1352005427406557, international_designator=InternationalDesignator(year=88, launch_number=19, launch_piece='F'), mean_anomaly=4.188343400497881, mean_motion=MeanMotion(first_derivative=2.363466695408988e-12, second_derivative=0.0, value=0.060298700041442894), revolution_number=95238, right_ascension_of_ascending_node=2.907844197528697, satellite_number=28275, classification='U'), frequency=None), overhead_time=TimeWindow(begin=datetime.datetime(2023, 2, 22, 1, 28, 55, 182648, tzinfo=datetime.timezone.utc), end=datetime.datetime(2023, 2, 22, 1, 29, 19, 182648, tzinfo=datetime.timezone.utc))), OverheadWindow(satellite=Satellite(name='0 ROCSAT 2', tle_information=TleInformation(argument_of_perigee=0.04651476989490087, drag_coefficient=-1.9462e-05, eccentricity=0.0002373, epoch_days=26633.80795892, inclination=1.7218807534937857, international_designator=InternationalDesignator(year=4, launch_number=18, launch_piece='A'), mean_anomaly=2.985923246945915, mean_motion=MeanMotion(first_derivative=-2.12105985485422e-12, second_derivative=0.0, value=0.06111631248860934), revolution_number=94766, right_ascension_of_ascending_node=5.859763194658006, satellite_number=28254, classification='U'), frequency=None), overhead_time=TimeWindow(begin=datetime.datetime(2023, 2, 22, 1, 49, 24, 954282, tzinfo=datetime.timezone.utc), end=datetime.datetime(2023, 2, 22, 1, 50, 4, 954282, tzinfo=datetime.timezone.utc)))]